{
  "norad_id": 68530,
  "name": "STARLINK-36285",
  "history": [
    {
      "epoch": "2026-04-07T05:45:39.036096Z",
      "apogee_km": 291.7704162838054,
      "perigee_km": 291.0967896529055,
      "latitude_deg": -3.359621658337828e-05,
      "longitude_deg": 84.28104840965653,
      "height_km": 292.0360274999269,
      "semi_major_axis_km": 6669.570602968355,
      "eccentricity": 5.05e-05,
      "inclination_deg": 53.1613,
      "raan_deg": 6.2135,
      "arg_perigee_deg": 343.1123,
      "mean_anomaly_deg": 16.9888,
      "mean_motion_rev_day": 15.93881209
    }
  ]
}