{"fetched_at":"2026-04-08T17:04:03Z","count":12288,"tles":[{"name":"STARLINK-36285","line1":"1 68530U 26068Y   26097.24003514 -.00549537  10745-3 -14560-2 0  9990","line2":"2 68530  53.1613   6.2135 0000505 343.1123  16.9888 15.93881209  1183","category":"Starlink"}]}